start=new Date('2022-10-19T00:00:00.000Z').valueOf();
sats=[{"OBJECT_TYPE":"PAYLOAD","PERIOD":"90.884","CENTER_NAME":"EARTH","MEAN_MOTION_DOT":"0.00088865","OBJECT_NAME":"STARLINK-4161","EPOCH":"2022-10-18T22:00:00.999936","EPHEMERIS_TYPE":"0","INCLINATION":"53.2110","NORAD_CAT_ID":"53028","SITE":"AFETR","SEMIMAJOR_AXIS":"6696.066","BSTAR":"0.00037998000000","TIME_SYSTEM":"UTC","GP_ID":"215531746","MEAN_ELEMENT_THEORY":"SGP4","REV_AT_EPOCH":"130","TLE_LINE1":"1 53028U 22076AU  22291.91667824  .00088865  00000-0  37998-3 0  9998","DECAY_DATE":null,"LAUNCH_DATE":"2022-07-07","ECCENTRICITY":"0.00053890","MEAN_ANOMALY":"119.8530","PERIAPSIS":"314.323","TLE_LINE2":"2 53028  53.2110 225.8613 0005389 114.1246 119.8530 15.84430344  1300","COUNTRY_CODE":"US","CLASSIFICATION_TYPE":"U","FILE":"3621750","MEAN_MOTION":"15.84430344","ELEMENT_SET_NO":"999","OBJECT_ID":"2022-076AU","ARG_OF_PERICENTER":"114.1246","REF_FRAME":"TEME","RCS_SIZE":"LARGE","APOAPSIS":"321.540","MEAN_MOTION_DDOT":"0.0000000000000","RA_OF_ASC_NODE":"225.8613"},{"PERIAPSIS":"484.271","TLE_LINE2":"2 53029  53.2163 231.2521 0001150  94.2703 259.5473 15.26909118  1300","COUNTRY_CODE":"US","MEAN_ANOMALY":"259.5473","ECCENTRICITY":"0.00011500","DECAY_DATE":null,"LAUNCH_DATE":"2022-07-07","MEAN_MOTION_DDOT":"0.0000000000000","RA_OF_ASC_NODE":"231.2521","REF_FRAME":"TEME","RCS_SIZE":"LARGE","APOAPSIS":"485.850","ARG_OF_PERICENTER":"94.2703","CLASSIFICATION_TYPE":"U","MEAN_MOTION":"15.26909118","FILE":"3621750","ELEMENT_SET_NO":"999","OBJECT_ID":"2022-076AV","INCLINATION":"53.2163","NORAD_CAT_ID":"53029","OBJECT_NAME":"STARLINK-4143","EPOCH":"2022-10-18T22:00:00.999936","EPHEMERIS_TYPE":"0","CENTER_NAME":"EARTH","MEAN_MOTION_DOT":"-0.01076243","OBJECT_TYPE":"PAYLOAD","PERIOD":"94.308","TIME_SYSTEM":"UTC","GP_ID":"215531258","MEAN_ELEMENT_THEORY":"SGP4","REV_AT_EPOCH":"130","TLE_LINE1":"1 53029U 22076AV  22291.91667824 -.01076243  00000-0 -43897-1 0  9992","BSTAR":"-0.04389700000000","SEMIMAJOR_AXIS":"6863.196","SITE":"AFETR"},{"ECCENTRICITY":"0.00013910","DECAY_DATE":null,"LAUNCH_DATE":"2022-07-07","TLE_LINE2":"2 53030  53.2159 240.6812 0001391  82.8291  54.0037 15.08834576  1305","PERIAPSIS":"538.800","COUNTRY_CODE":"US","MEAN_ANOMALY":"54.0037","ARG_OF_PERICENTER":"82.8291","ELEMENT_SET_NO":"999","FILE":"3621750","MEAN_MOTION":"15.08834576","OBJECT_ID":"2022-076AW","CLASSIFICATION_TYPE":"U","MEAN_MOTION_DDOT":"0.0000000000000","RA_OF_ASC_NODE":"240.6812","REF_FRAME":"TEME","APOAPSIS":"540.724","RCS_SIZE":"LARGE","CENTER_NAME":"EARTH","MEAN_MOTION_DOT":"0.00009622","OBJECT_TYPE":"PAYLOAD","PERIOD":"95.438","NORAD_CAT_ID":"53030","INCLINATION":"53.2159","OBJECT_NAME":"STARLINK-4160","EPHEMERIS_TYPE":"0","EPOCH":"2022-10-18T22:00:00.999936","SEMIMAJOR_AXIS":"6917.897","SITE":"AFETR","GP_ID":"215531162","TIME_SYSTEM":"UTC","TLE_LINE1":"1 53030U 22076AW  22291.91667824  .00009622  00000-0  62189-3 0  9995","REV_AT_EPOCH":"130","MEAN_ELEMENT_THEORY":"SGP4","BSTAR":"0.00062189000000"},{"OBJECT_NAME":"STARLINK-4137","EPOCH":"2022-10-18T22:00:00.999936","EPHEMERIS_TYPE":"0","INCLINATION":"53.2167","NORAD_CAT_ID":"53031","OBJECT_TYPE":"PAYLOAD","PERIOD":"94.253","MEAN_MOTION_DOT":"-0.01082066","CENTER_NAME":"EARTH","BSTAR":"-0.04296900000000","TIME_SYSTEM":"UTC","GP_ID":"215530997","REV_AT_EPOCH":"130","MEAN_ELEMENT_THEORY":"SGP4","TLE_LINE1":"1 53031U 22076AX  22291.91667824 -.01082066  00000-0 -42969-1 0  9994","SITE":"AFETR","SEMIMAJOR_AXIS":"6860.531","MEAN_ANOMALY":"320.1178","PERIAPSIS":"481.575","TLE_LINE2":"2 53031  53.2167 231.2724 0001197  67.7934 320.1178 15.27798772  1304","COUNTRY_CODE":"US","DECAY_DATE":null,"LAUNCH_DATE":"2022-07-07","ECCENTRICITY":"0.00011970","REF_FRAME":"TEME","APOAPSIS":"483.217","RCS_SIZE":"LARGE","MEAN_MOTION_DDOT":"0.0000000000000","RA_OF_ASC_NODE":"231.2724","CLASSIFICATION_TYPE":"U","FILE":"3621750","MEAN_MOTION":"15.27798772","ELEMENT_SET_NO":"999","OBJECT_ID":"2022-076AX","ARG_OF_PERICENTER":"67.7934"},{"ARG_OF_PERICENTER":"70.3938","CLASSIFICATION_TYPE":"U","OBJECT_ID":"2022-076AY","FILE":"3621750","ELEMENT_SET_NO":"999","MEAN_MOTION":"15.08850057","RA_OF_ASC_NODE":"240.6797","MEAN_MOTION_DDOT":"0.0000000000000","RCS_SIZE":"LARGE","APOAPSIS":"540.663","REF_FRAME":"TEME","ECCENTRICITY":"0.00013710","LAUNCH_DATE":"2022-07-07","DECAY_DATE":null,"COUNTRY_CODE":"US","PERIAPSIS":"538.766","TLE_LINE2":"2 53032  53.2174 240.6797 0001371  70.3938  86.3981 15.08850057  1302","MEAN_ANOMALY":"86.3981","SEMIMAJOR_AXIS":"6917.850","SITE":"AFETR","REV_AT_EPOCH":"130","MEAN_ELEMENT_THEORY":"SGP4","TLE_LINE1":"1 53032U 22076AY  22291.91667824  .00010027  00000-0  64703-3 0  9992","TIME_SYSTEM":"UTC","GP_ID":"215531988","BSTAR":"0.00064703000000","CENTER_NAME":"EARTH","MEAN_MOTION_DOT":"0.00010027","PERIOD":"95.437","OBJECT_TYPE":"PAYLOAD","INCLINATION":"53.2174","NORAD_CAT_ID":"53032","EPOCH":"2022-10-18T22:00:00.999936","EPHEMERIS_TYPE":"0","OBJECT_NAME":"STARLINK-4115"},{"MEAN_ELEMENT_THEORY":"SGP4","REV_AT_EPOCH":"130","TLE_LINE1":"1 53033U 22076AZ  22291.91667824 -.01075583  00000-0 -43083-1 0  9990","TIME_SYSTEM":"UTC","GP_ID":"215530841","BSTAR":"-0.04308300000000","SEMIMAJOR_AXIS":"6861.429","SITE":"AFETR","INCLINATION":"53.2166","NORAD_CAT_ID":"53033","EPOCH":"2022-10-18T22:00:00.999936","EPHEMERIS_TYPE":"0","OBJECT_NAME":"STARLINK-4167","CENTER_NAME":"EARTH","MEAN_MOTION_DOT":"-0.01075583","PERIOD":"94.272","OBJECT_TYPE":"PAYLOAD","RA_OF_ASC_NODE":"231.2657","MEAN_MOTION_DDOT":"0.0000000000000","RCS_SIZE":"LARGE","APOAPSIS":"484.097","REF_FRAME":"TEME","ARG_OF_PERICENTER":"77.0981","CLASSIFICATION_TYPE":"U","ELEMENT_SET_NO":"999","FILE":"3621750","MEAN_MOTION":"15.27498951","OBJECT_ID":"2022-076AZ","COUNTRY_CODE":"US","PERIAPSIS":"482.490","TLE_LINE2":"2 53033  53.2166 231.2657 0001171  77.0981 299.5878 15.27498951  1300","MEAN_ANOMALY":"299.5878","ECCENTRICITY":"0.00011710","LAUNCH_DATE":"2022-07-07","DECAY_DATE":null},{"CENTER_NAME":"EARTH","MEAN_MOTION_DOT":"-0.01078453","OBJECT_TYPE":"PAYLOAD","PERIOD":"94.290","INCLINATION":"53.2164","NORAD_CAT_ID":"53034","OBJECT_NAME":"STARLINK-4151","EPOCH":"2022-10-18T22:00:00.999936","EPHEMERIS_TYPE":"0","SEMIMAJOR_AXIS":"6862.307","SITE":"AFETR","TIME_SYSTEM":"UTC","GP_ID":"215531580","REV_AT_EPOCH":"130","MEAN_ELEMENT_THEORY":"SGP4","TLE_LINE1":"1 53034U 22076BA  22291.91667824 -.01078453  00000-0 -43598-1 0  9991","BSTAR":"-0.04359800000000","ECCENTRICITY":"0.00011670","DECAY_DATE":null,"LAUNCH_DATE":"2022-07-07","PERIAPSIS":"483.371","TLE_LINE2":"2 53034  53.2164 231.2589 0001167  87.3321 277.9877 15.27205803  1301","COUNTRY_CODE":"US","MEAN_ANOMALY":"277.9877","ARG_OF_PERICENTER":"87.3321","CLASSIFICATION_TYPE":"U","ELEMENT_SET_NO":"999","FILE":"3621750","MEAN_MOTION":"15.27205803","OBJECT_ID":"2022-076BA","MEAN_MOTION_DDOT":"0.0000000000000","RA_OF_ASC_NODE":"231.2589","REF_FRAME":"TEME","RCS_SIZE":"LARGE","APOAPSIS":"484.973"},{"NORAD_CAT_ID":"53035","INCLINATION":"53.2167","OBJECT_NAME":"STARLINK-4157","EPHEMERIS_TYPE":"0","EPOCH":"2022-10-18T22:00:00.999936","MEAN_MOTION_DOT":"-0.01080588","CENTER_NAME":"EARTH","OBJECT_TYPE":"PAYLOAD","PERIOD":"94.235","GP_ID":"215531415","TIME_SYSTEM":"UTC","TLE_LINE1":"1 53035U 22076BB  22291.91667824 -.01080588  00000-0 -42519-1 0  9996","MEAN_ELEMENT_THEORY":"SGP4","REV_AT_EPOCH":"130","BSTAR":"-0.04251900000000","SEMIMAJOR_AXIS":"6859.651","SITE":"AFETR","TLE_LINE2":"2 53035  53.2167 231.2789 0001201  72.0725 326.9291 15.28092817  1300","PERIAPSIS":"480.692","COUNTRY_CODE":"US","MEAN_ANOMALY":"326.9291","ECCENTRICITY":"0.00012010","DECAY_DATE":null,"LAUNCH_DATE":"2022-07-07","MEAN_MOTION_DDOT":"0.0000000000000","RA_OF_ASC_NODE":"231.2789","REF_FRAME":"TEME","APOAPSIS":"482.340","RCS_SIZE":"LARGE","ARG_OF_PERICENTER":"72.0725","OBJECT_ID":"2022-076BB","FILE":"3621750","ELEMENT_SET_NO":"999","MEAN_MOTION":"15.28092817","CLASSIFICATION_TYPE":"U"},{"SITE":"AFETR","SEMIMAJOR_AXIS":"6858.779","BSTAR":"-0.04192500000000","TIME_SYSTEM":"UTC","GP_ID":"215531747","MEAN_ELEMENT_THEORY":"SGP4","REV_AT_EPOCH":"130","TLE_LINE1":"1 53036U 22076BC  22291.91667824 -.01075566  00000-0 -41925-1 0  9997","PERIOD":"94.217","OBJECT_TYPE":"PAYLOAD","MEAN_MOTION_DOT":"-0.01075566","CENTER_NAME":"EARTH","OBJECT_NAME":"STARLINK-4155","EPOCH":"2022-10-18T22:00:00.999936","EPHEMERIS_TYPE":"0","INCLINATION":"53.2167","NORAD_CAT_ID":"53036","CLASSIFICATION_TYPE":"U","FILE":"3621750","OBJECT_ID":"2022-076BC","ELEMENT_SET_NO":"999","MEAN_MOTION":"15.28384317","ARG_OF_PERICENTER":"60.9640","REF_FRAME":"TEME","RCS_SIZE":"MEDIUM","APOAPSIS":"481.524","MEAN_MOTION_DDOT":"0.0000000000000","RA_OF_ASC_NODE":"231.2851","DECAY_DATE":null,"LAUNCH_DATE":"2022-07-07","ECCENTRICITY":"0.00012830","MEAN_ANOMALY":"348.9915","PERIAPSIS":"479.764","TLE_LINE2":"2 53036  53.2167 231.2851 0001283  60.9640 348.9915 15.28384317  1309","COUNTRY_CODE":"US"},{"BSTAR":"-0.04195200000000","TIME_SYSTEM":"UTC","GP_ID":"215531259","MEAN_ELEMENT_THEORY":"SGP4","REV_AT_EPOCH":"130","TLE_LINE1":"1 53037U 22076BD  22291.91667824 -.01085450  00000-0 -41952-1 0  9991","SITE":"AFETR","SEMIMAJOR_AXIS":"6857.875","OBJECT_NAME":"STARLINK-4153","EPOCH":"2022-10-18T22:00:00.999936","EPHEMERIS_TYPE":"0","INCLINATION":"53.2168","NORAD_CAT_ID":"53037","PERIOD":"94.199","OBJECT_TYPE":"PAYLOAD","MEAN_MOTION_DOT":"-0.01085450","CENTER_NAME":"EARTH","REF_FRAME":"TEME","RCS_SIZE":"LARGE","APOAPSIS":"480.657","MEAN_MOTION_DDOT":"0.0000000000000","RA_OF_ASC_NODE":"231.2903","CLASSIFICATION_TYPE":"U","FILE":"3621750","OBJECT_ID":"2022-076BD","ELEMENT_SET_NO":"999","MEAN_MOTION":"15.28686447","ARG_OF_PERICENTER":"63.1367","MEAN_ANOMALY":"357.6308","PERIAPSIS":"478.823","TLE_LINE2":"2 53037  53.2168 231.2903 0001337  63.1367 357.6308 15.28686447  1302","COUNTRY_CODE":"US","DECAY_DATE":null,"LAUNCH_DATE":"2022-07-07","ECCENTRICITY":"0.00013370"}];
